start=new Date('2022-10-24T00:00:00.000Z').valueOf();
sats=[{"REF_FRAME":"TEME","DECAY_DATE":null,"MEAN_ANOMALY":"33.4228","MEAN_MOTION_DOT":"-0.01157470","TLE_LINE1":"1 53574U 22101AZ  22296.91667824 -.01157470  00000-0 -14054-1 0  9996","PERIOD":"92.151","ELEMENT_SET_NO":"999","MEAN_MOTION_DDOT":"0.0000000000000","INCLINATION":"53.2169","EPOCH":"2022-10-23T22:00:00.999936","PERIAPSIS":"379.224","LAUNCH_DATE":"2022-08-19","SITE":"AFETR","SEMIMAJOR_AXIS":"6758.135","BSTAR":"-0.01405400000000","MEAN_ELEMENT_THEORY":"SGP4","CENTER_NAME":"EARTH","GP_ID":"215997462","TIME_SYSTEM":"UTC","ECCENTRICITY":"0.00011480","CLASSIFICATION_TYPE":"U","TLE_LINE2":"2 53574  53.2169 192.5653 0001148  88.8454  33.4228 15.62652641  1308","OBJECT_TYPE":"PAYLOAD","APOAPSIS":"380.776","NORAD_CAT_ID":"53574","ARG_OF_PERICENTER":"88.8454","RA_OF_ASC_NODE":"192.5653","REV_AT_EPOCH":"130","RCS_SIZE":"LARGE","FILE":"3630604","COUNTRY_CODE":"US","MEAN_MOTION":"15.62652641","OBJECT_ID":"2022-101AZ","EPHEMERIS_TYPE":"0","OBJECT_NAME":"STARLINK-4559"},{"MEAN_MOTION":"15.62527411","OBJECT_ID":"2022-101BA","EPHEMERIS_TYPE":"0","OBJECT_NAME":"STARLINK-4551","REV_AT_EPOCH":"130","RCS_SIZE":"LARGE","FILE":"3630604","COUNTRY_CODE":"US","TLE_LINE2":"2 53575  53.2176 192.5712 0001254  63.9555  54.8417 15.62527411  1300","OBJECT_TYPE":"PAYLOAD","CLASSIFICATION_TYPE":"U","APOAPSIS":"381.209","NORAD_CAT_ID":"53575","ARG_OF_PERICENTER":"63.9555","RA_OF_ASC_NODE":"192.5712","GP_ID":"215998045","TIME_SYSTEM":"UTC","ECCENTRICITY":"0.00012540","MEAN_ELEMENT_THEORY":"SGP4","CENTER_NAME":"EARTH","PERIAPSIS":"379.514","LAUNCH_DATE":"2022-08-19","SITE":"AFETR","SEMIMAJOR_AXIS":"6758.496","BSTAR":"-0.01380200000000","MEAN_MOTION_DDOT":"0.0000000000000","INCLINATION":"53.2176","EPOCH":"2022-10-23T22:00:00.999936","REF_FRAME":"TEME","DECAY_DATE":null,"MEAN_ANOMALY":"54.8417","TLE_LINE1":"1 53575U 22101BA  22296.91667824 -.01133634  00000-0 -13802-1 0  9993","MEAN_MOTION_DOT":"-0.01133634","PERIOD":"92.158","ELEMENT_SET_NO":"999"},{"OBJECT_NAME":"STARLINK-4581","EPHEMERIS_TYPE":"0","OBJECT_ID":"2022-101BB","MEAN_MOTION":"15.62671337","COUNTRY_CODE":"US","FILE":"3630604","REV_AT_EPOCH":"130","RCS_SIZE":"LARGE","ARG_OF_PERICENTER":"79.0741","RA_OF_ASC_NODE":"192.5629","NORAD_CAT_ID":"53576","APOAPSIS":"380.740","TLE_LINE2":"2 53576  53.2171 192.5629 0001175  79.0741  44.3626 15.62671337  1303","OBJECT_TYPE":"PAYLOAD","CLASSIFICATION_TYPE":"U","TIME_SYSTEM":"UTC","ECCENTRICITY":"0.00011750","GP_ID":"215997718","CENTER_NAME":"EARTH","MEAN_ELEMENT_THEORY":"SGP4","BSTAR":"-0.01372600000000","SEMIMAJOR_AXIS":"6758.081","SITE":"AFETR","LAUNCH_DATE":"2022-08-19","PERIAPSIS":"379.152","EPOCH":"2022-10-23T22:00:00.999936","INCLINATION":"53.2171","MEAN_MOTION_DDOT":"0.0000000000000","ELEMENT_SET_NO":"999","PERIOD":"92.150","TLE_LINE1":"1 53576U 22101BB  22296.91667824 -.01133755  00000-0 -13726-1 0  9993","MEAN_MOTION_DOT":"-0.01133755","DECAY_DATE":null,"MEAN_ANOMALY":"44.3626","REF_FRAME":"TEME"},{"ECCENTRICITY":"0.00013220","TIME_SYSTEM":"UTC","GP_ID":"215998444","ARG_OF_PERICENTER":"57.2543","RA_OF_ASC_NODE":"192.5664","NORAD_CAT_ID":"53577","OBJECT_TYPE":"PAYLOAD","TLE_LINE2":"2 53577  53.2176 192.5664 0001322  57.2543  63.8749 15.62599753  1303","CLASSIFICATION_TYPE":"U","APOAPSIS":"381.046","COUNTRY_CODE":"US","FILE":"3630604","REV_AT_EPOCH":"130","RCS_SIZE":"LARGE","OBJECT_NAME":"STARLINK-4553","OBJECT_ID":"2022-101BC","MEAN_MOTION":"15.62599753","EPHEMERIS_TYPE":"0","ELEMENT_SET_NO":"999","PERIOD":"92.154","REF_FRAME":"TEME","MEAN_MOTION_DOT":"-0.01133450","TLE_LINE1":"1 53577U 22101BC  22296.91667824 -.01133450  00000-0 -13760-1 0  9994","DECAY_DATE":null,"MEAN_ANOMALY":"63.8749","INCLINATION":"53.2176","EPOCH":"2022-10-23T22:00:00.999936","MEAN_MOTION_DDOT":"0.0000000000000","BSTAR":"-0.01376000000000","LAUNCH_DATE":"2022-08-19","PERIAPSIS":"379.259","SEMIMAJOR_AXIS":"6758.288","SITE":"AFETR","MEAN_ELEMENT_THEORY":"SGP4","CENTER_NAME":"EARTH"},{"SEMIMAJOR_AXIS":"6757.974","SITE":"AFETR","PERIAPSIS":"379.040","LAUNCH_DATE":"2022-08-19","BSTAR":"-0.01376000000000","CENTER_NAME":"EARTH","MEAN_ELEMENT_THEORY":"SGP4","MEAN_ANOMALY":"43.8408","DECAY_DATE":null,"MEAN_MOTION_DOT":"-0.01137810","TLE_LINE1":"1 53578U 22101BD  22296.91667824 -.01137810  00000-0 -13760-1 0  9999","REF_FRAME":"TEME","PERIOD":"92.148","ELEMENT_SET_NO":"999","MEAN_MOTION_DDOT":"0.0000000000000","EPOCH":"2022-10-23T22:00:00.999936","INCLINATION":"53.2169","REV_AT_EPOCH":"130","RCS_SIZE":"LARGE","FILE":"3630604","COUNTRY_CODE":"US","EPHEMERIS_TYPE":"0","MEAN_MOTION":"15.62708495","OBJECT_ID":"2022-101BD","OBJECT_NAME":"STARLINK-4556","GP_ID":"215997881","ECCENTRICITY":"0.00011820","TIME_SYSTEM":"UTC","APOAPSIS":"380.638","TLE_LINE2":"2 53578  53.2169 192.5606 0001182  80.7227  43.8408 15.62708495  1301","CLASSIFICATION_TYPE":"U","OBJECT_TYPE":"PAYLOAD","NORAD_CAT_ID":"53578","ARG_OF_PERICENTER":"80.7227","RA_OF_ASC_NODE":"192.5606"},{"GP_ID":"215998281","TIME_SYSTEM":"UTC","ECCENTRICITY":"0.00012470","OBJECT_TYPE":"PAYLOAD","TLE_LINE2":"2 53579  53.2175 192.5573 0001247  66.3328  59.2879 15.62735059  1305","CLASSIFICATION_TYPE":"U","APOAPSIS":"380.605","NORAD_CAT_ID":"53579","RA_OF_ASC_NODE":"192.5573","ARG_OF_PERICENTER":"66.3328","RCS_SIZE":"LARGE","REV_AT_EPOCH":"130","FILE":"3630604","COUNTRY_CODE":"US","MEAN_MOTION":"15.62735059","OBJECT_ID":"2022-101BE","EPHEMERIS_TYPE":"0","OBJECT_NAME":"STARLINK-4580","REF_FRAME":"TEME","MEAN_ANOMALY":"59.2879","DECAY_DATE":null,"TLE_LINE1":"1 53579U 22101BE  22296.91667824 -.01133435  00000-0 -13687-1 0  9997","MEAN_MOTION_DOT":"-0.01133435","PERIOD":"92.146","ELEMENT_SET_NO":"999","MEAN_MOTION_DDOT":"0.0000000000000","INCLINATION":"53.2175","EPOCH":"2022-10-23T22:00:00.999936","PERIAPSIS":"378.920","LAUNCH_DATE":"2022-08-19","SEMIMAJOR_AXIS":"6757.898","SITE":"AFETR","BSTAR":"-0.01368700000000","MEAN_ELEMENT_THEORY":"SGP4","CENTER_NAME":"EARTH"},{"ARG_OF_PERICENTER":"60.9107","RA_OF_ASC_NODE":"18.4942","NORAD_CAT_ID":"53588","OBJECT_TYPE":"PAYLOAD","TLE_LINE2":"2 53588  53.2162  18.4942 0001457  60.9107 329.7634 15.08877963  1300","CLASSIFICATION_TYPE":"U","APOAPSIS":"540.637","TIME_SYSTEM":"UTC","ECCENTRICITY":"0.00014570","GP_ID":"215998046","OBJECT_NAME":"STARLINK-4691","OBJECT_ID":"2022-104A","MEAN_MOTION":"15.08877963","EPHEMERIS_TYPE":"0","COUNTRY_CODE":"US","FILE":"3630604","RCS_SIZE":"LARGE","REV_AT_EPOCH":"130","INCLINATION":"53.2162","EPOCH":"2022-10-23T22:00:00.999936","MEAN_MOTION_DDOT":"0.0000000000000","ELEMENT_SET_NO":"999","PERIOD":"95.435","REF_FRAME":"TEME","TLE_LINE1":"1 53588U 22104A   22296.91667824 -.00105578  00000-0 -67070-2 0  9992","MEAN_MOTION_DOT":"-0.00105578","MEAN_ANOMALY":"329.7634","DECAY_DATE":null,"MEAN_ELEMENT_THEORY":"SGP4","CENTER_NAME":"EARTH","BSTAR":"-0.00670700000000","LAUNCH_DATE":"2022-08-28","PERIAPSIS":"538.621","SEMIMAJOR_AXIS":"6917.764","SITE":"AFETR"},{"BSTAR":"-0.00671450000000","LAUNCH_DATE":"2022-08-28","PERIAPSIS":"538.637","SITE":"AFETR","SEMIMAJOR_AXIS":"6917.747","MEAN_ELEMENT_THEORY":"SGP4","CENTER_NAME":"EARTH","ELEMENT_SET_NO":"999","PERIOD":"95.435","REF_FRAME":"TEME","MEAN_MOTION_DOT":"-0.00105710","TLE_LINE1":"1 53589U 22104B   22296.91667824 -.00105710  00000-0 -67145-2 0  9994","MEAN_ANOMALY":"64.6211","DECAY_DATE":null,"INCLINATION":"53.2165","EPOCH":"2022-10-23T22:00:00.999936","MEAN_MOTION_DDOT":"0.0000000000000","COUNTRY_CODE":"US","FILE":"3630604","RCS_SIZE":"LARGE","REV_AT_EPOCH":"130","OBJECT_NAME":"STARLINK-4673","OBJECT_ID":"2022-104B","MEAN_MOTION":"15.08883617","EPHEMERIS_TYPE":"0","ECCENTRICITY":"0.00014100","TIME_SYSTEM":"UTC","GP_ID":"215997719","ARG_OF_PERICENTER":"66.1757","RA_OF_ASC_NODE":"18.3003","NORAD_CAT_ID":"53589","CLASSIFICATION_TYPE":"U","TLE_LINE2":"2 53589  53.2165  18.3003 0001410  66.1757  64.6211 15.08883617  1308","OBJECT_TYPE":"PAYLOAD","APOAPSIS":"540.587"},{"OBJECT_TYPE":"PAYLOAD","TLE_LINE2":"2 53590  53.2162  18.4530 0001439  76.5440 334.1389 15.08891657  1302","CLASSIFICATION_TYPE":"U","APOAPSIS":"540.583","ARG_OF_PERICENTER":"76.5440","RA_OF_ASC_NODE":"18.4530","NORAD_CAT_ID":"53590","GP_ID":"215998445","ECCENTRICITY":"0.00014390","TIME_SYSTEM":"UTC","OBJECT_ID":"2022-104C","MEAN_MOTION":"15.08891657","EPHEMERIS_TYPE":"0","OBJECT_NAME":"STARLINK-4689","FILE":"3630604","RCS_SIZE":"LARGE","REV_AT_EPOCH":"130","COUNTRY_CODE":"US","MEAN_MOTION_DDOT":"0.0000000000000","INCLINATION":"53.2162","EPOCH":"2022-10-23T22:00:00.999936","REF_FRAME":"TEME","MEAN_MOTION_DOT":"-0.00118286","TLE_LINE1":"1 53590U 22104C   22296.91667824 -.00118286  00000-0 -75270-2 0  9996","DECAY_DATE":null,"MEAN_ANOMALY":"334.1389","ELEMENT_SET_NO":"999","PERIOD":"95.434","MEAN_ELEMENT_THEORY":"SGP4","CENTER_NAME":"EARTH","LAUNCH_DATE":"2022-08-28","PERIAPSIS":"538.592","SITE":"AFETR","SEMIMAJOR_AXIS":"6917.722","BSTAR":"-0.00752700000000"},{"ARG_OF_PERICENTER":"79.9902","RA_OF_ASC_NODE":"18.4130","NORAD_CAT_ID":"53591","OBJECT_TYPE":"PAYLOAD","TLE_LINE2":"2 53591  53.2147  18.4130 0001071  79.9902 350.6956 15.08885422  1300","CLASSIFICATION_TYPE":"U","APOAPSIS":"540.347","ECCENTRICITY":"0.00010710","TIME_SYSTEM":"UTC","GP_ID":"215997882","OBJECT_NAME":"STARLINK-4674","OBJECT_ID":"2022-104D","MEAN_MOTION":"15.08885422","EPHEMERIS_TYPE":"0","COUNTRY_CODE":"US","FILE":"3630604","REV_AT_EPOCH":"130","RCS_SIZE":"LARGE","INCLINATION":"53.2147","EPOCH":"2022-10-23T22:00:00.999936","MEAN_MOTION_DDOT":"0.0000000000000","ELEMENT_SET_NO":"999","PERIOD":"95.435","REF_FRAME":"TEME","TLE_LINE1":"1 53591U 22104D   22296.91667824 -.00092537  00000-0 -58645-2 0  9994","MEAN_MOTION_DOT":"-0.00092537","MEAN_ANOMALY":"350.6956","DECAY_DATE":null,"MEAN_ELEMENT_THEORY":"SGP4","CENTER_NAME":"EARTH","BSTAR":"-0.00586450000000","LAUNCH_DATE":"2022-08-28","PERIAPSIS":"538.866","SITE":"AFETR","SEMIMAJOR_AXIS":"6917.742"}];
